{"type":"FeatureCollection","features":[{"type":"Feature","geometry":{"type":"Point","coordinates":[112.271301,30.987527]},"properties":{"name":"湖北省","areaCode":420000,"deep":1,"parentCode":100000}},{"type":"Feature","geometry":{"type":"Point","coordinates":[114.348204,30.623025]},"properties":{"name":"武汉市","areaCode":420100,"deep":2,"parentCode":420000}},{"type":"Feature","geometry":{"type":"Point","coordinates":[114.320896,30.642672]},"properties":{"name":"江岸区","areaCode":420102,"deep":3,"parentCode":420100}},{"type":"Feature","geometry":{"type":"Point","coordinates":[114.259269,30.604071]},"properties":{"name":"江汉区","areaCode":420103,"deep":3,"parentCode":420100}},{"type":"Feature","geometry":{"type":"Point","coordinates":[114.212905,30.597798]},"properties":{"name":"硚口区","areaCode":420104,"deep":3,"parentCode":420100}},{"type":"Feature","geometry":{"type":"Point","coordinates":[114.209517,30.541833]},"properties":{"name":"汉阳区","areaCode":420105,"deep":3,"parentCode":420100}},{"type":"Feature","geometry":{"type":"Point","coordinates":[114.341206,30.556346]},"properties":{"name":"武昌区","areaCode":420106,"deep":3,"parentCode":420100}},{"type":"Feature","geometry":{"type":"Point","coordinates":[114.447146,30.621917]},"properties":{"name":"青山区","areaCode":420107,"deep":3,"parentCode":420100}},{"type":"Feature","geometry":{"type":"Point","coordinates":[114.432168,30.533796]},"properties":{"name":"洪山区","areaCode":420111,"deep":3,"parentCode":420100}},{"type":"Feature","geometry":{"type":"Point","coordinates":[114.076902,30.690527]},"properties":{"name":"东西湖区","areaCode":420112,"deep":3,"parentCode":420100}},{"type":"Feature","geometry":{"type":"Point","coordinates":[114.08124,30.309637]},"properties":{"name":"汉南区","areaCode":420113,"deep":3,"parentCode":420100}},{"type":"Feature","geometry":{"type":"Point","coordinates":[113.96512,30.451884]},"properties":{"name":"蔡甸区","areaCode":420114,"deep":3,"parentCode":420100}},{"type":"Feature","geometry":{"type":"Point","coordinates":[114.360325,30.243389]},"properties":{"name":"江夏区","areaCode":420115,"deep":3,"parentCode":420100}},{"type":"Feature","geometry":{"type":"Point","coordinates":[114.355245,30.978113]},"properties":{"name":"黄陂区","areaCode":420116,"deep":3,"parentCode":420100}},{"type":"Feature","geometry":{"type":"Point","coordinates":[114.752673,30.798095]},"properties":{"name":"新洲区","areaCode":420117,"deep":3,"parentCode":420100}},{"type":"Feature","geometry":{"type":"Point","coordinates":[115.02984,29.925181]},"properties":{"name":"黄石市","areaCode":420200,"deep":2,"parentCode":420000}},{"type":"Feature","geometry":{"type":"Point","coordinates":[115.058835,30.232266]},"properties":{"name":"黄石港区","areaCode":420202,"deep":3,"parentCode":420200}},{"type":"Feature","geometry":{"type":"Point","coordinates":[115.163739,30.177117]},"properties":{"name":"西塞山区","areaCode":420203,"deep":3,"parentCode":420200}},{"type":"Feature","geometry":{"type":"Point","coordinates":[114.985459,30.192881]},"properties":{"name":"下陆区","areaCode":420204,"deep":3,"parentCode":420200}},{"type":"Feature","geometry":{"type":"Point","coordinates":[114.89868,30.211668]},"properties":{"name":"铁山区","areaCode":420205,"deep":3,"parentCode":420200}},{"type":"Feature","geometry":{"type":"Point","coordinates":[115.133954,29.823198]},"properties":{"name":"阳新县","areaCode":420222,"deep":3,"parentCode":420200}},{"type":"Feature","geometry":{"type":"Point","coordinates":[114.838883,30.06582]},"properties":{"name":"大冶市","areaCode":420281,"deep":3,"parentCode":420200}},{"type":"Feature","geometry":{"type":"Point","coordinates":[110.446495,32.45798]},"properties":{"name":"十堰市","areaCode":420300,"deep":2,"parentCode":420000}},{"type":"Feature","geometry":{"type":"Point","coordinates":[110.787323,32.518423]},"properties":{"name":"茅箭区","areaCode":420302,"deep":3,"parentCode":420300}},{"type":"Feature","geometry":{"type":"Point","coordinates":[110.62296,32.64062]},"properties":{"name":"张湾区","areaCode":420303,"deep":3,"parentCode":420300}},{"type":"Feature","geometry":{"type":"Point","coordinates":[110.730847,32.860417]},"properties":{"name":"郧阳区","areaCode":420304,"deep":3,"parentCode":420300}},{"type":"Feature","geometry":{"type":"Point","coordinates":[110.142415,33.04214]},"properties":{"name":"郧西县","areaCode":420322,"deep":3,"parentCode":420300}},{"type":"Feature","geometry":{"type":"Point","coordinates":[110.064901,32.234849]},"properties":{"name":"竹山县","areaCode":420323,"deep":3,"parentCode":420300}},{"type":"Feature","geometry":{"type":"Point","coordinates":[109.784332,32.031931]},"properties":{"name":"竹溪县","areaCode":420324,"deep":3,"parentCode":420300}},{"type":"Feature","geometry":{"type":"Point","coordinates":[110.624942,32.072387]},"properties":{"name":"房县","areaCode":420325,"deep":3,"parentCode":420300}},{"type":"Feature","geometry":{"type":"Point","coordinates":[111.187871,32.563376]},"properties":{"name":"丹江口市","areaCode":420381,"deep":3,"parentCode":420300}},{"type":"Feature","geometry":{"type":"Point","coordinates":[111.140801,30.747312]},"properties":{"name":"宜昌市","areaCode":420500,"deep":2,"parentCode":420000}},{"type":"Feature","geometry":{"type":"Point","coordinates":[111.318718,30.719864]},"properties":{"name":"西陵区","areaCode":420502,"deep":3,"parentCode":420500}},{"type":"Feature","geometry":{"type":"Point","coordinates":[111.380938,30.65149]},"properties":{"name":"伍家岗区","areaCode":420503,"deep":3,"parentCode":420500}},{"type":"Feature","geometry":{"type":"Point","coordinates":[111.177318,30.670796]},"properties":{"name":"点军区","areaCode":420504,"deep":3,"parentCode":420500}},{"type":"Feature","geometry":{"type":"Point","coordinates":[111.448198,30.550879]},"properties":{"name":"猇亭区","areaCode":420505,"deep":3,"parentCode":420500}},{"type":"Feature","geometry":{"type":"Point","coordinates":[111.249522,30.974389]},"properties":{"name":"夷陵区","areaCode":420506,"deep":3,"parentCode":420500}},{"type":"Feature","geometry":{"type":"Point","coordinates":[111.578513,31.170982]},"properties":{"name":"远安县","areaCode":420525,"deep":3,"parentCode":420500}},{"type":"Feature","geometry":{"type":"Point","coordinates":[110.8167,31.315578]},"properties":{"name":"兴山县","areaCode":420526,"deep":3,"parentCode":420500}},{"type":"Feature","geometry":{"type":"Point","coordinates":[110.678553,30.897811]},"properties":{"name":"秭归县","areaCode":420527,"deep":3,"parentCode":420500}},{"type":"Feature","geometry":{"type":"Point","coordinates":[110.847903,30.478506]},"properties":{"name":"长阳土家族自治县","areaCode":420528,"deep":3,"parentCode":420500}},{"type":"Feature","geometry":{"type":"Point","coordinates":[110.708007,30.168626]},"properties":{"name":"五峰土家族自治县","areaCode":420529,"deep":3,"parentCode":420500}},{"type":"Feature","geometry":{"type":"Point","coordinates":[111.370069,30.291557]},"properties":{"name":"宜都市","areaCode":420581,"deep":3,"parentCode":420500}},{"type":"Feature","geometry":{"type":"Point","coordinates":[111.83563,30.820229]},"properties":{"name":"当阳市","areaCode":420582,"deep":3,"parentCode":420500}},{"type":"Feature","geometry":{"type":"Point","coordinates":[111.723108,30.445182]},"properties":{"name":"枝江市","areaCode":420583,"deep":3,"parentCode":420500}},{"type":"Feature","geometry":{"type":"Point","coordinates":[111.944787,31.930988]},"properties":{"name":"襄阳市","areaCode":420600,"deep":2,"parentCode":420000}},{"type":"Feature","geometry":{"type":"Point","coordinates":[112.059085,31.947121]},"properties":{"name":"襄城区","areaCode":420602,"deep":3,"parentCode":420600}},{"type":"Feature","geometry":{"type":"Point","coordinates":[111.983905,32.119138]},"properties":{"name":"樊城区","areaCode":420606,"deep":3,"parentCode":420600}},{"type":"Feature","geometry":{"type":"Point","coordinates":[112.240713,32.171274]},"properties":{"name":"襄州区","areaCode":420607,"deep":3,"parentCode":420600}},{"type":"Feature","geometry":{"type":"Point","coordinates":[111.758642,31.637984]},"properties":{"name":"南漳县","areaCode":420624,"deep":3,"parentCode":420600}},{"type":"Feature","geometry":{"type":"Point","coordinates":[111.488868,32.16887]},"properties":{"name":"谷城县","areaCode":420625,"deep":3,"parentCode":420600}},{"type":"Feature","geometry":{"type":"Point","coordinates":[111.207039,31.708112]},"properties":{"name":"保康县","areaCode":420626,"deep":3,"parentCode":420600}},{"type":"Feature","geometry":{"type":"Point","coordinates":[111.760727,32.428507]},"properties":{"name":"老河口市","areaCode":420682,"deep":3,"parentCode":420600}},{"type":"Feature","geometry":{"type":"Point","coordinates":[112.766733,32.088629]},"properties":{"name":"枣阳市","areaCode":420683,"deep":3,"parentCode":420600}},{"type":"Feature","geometry":{"type":"Point","coordinates":[112.365943,31.668455]},"properties":{"name":"宜城市","areaCode":420684,"deep":3,"parentCode":420600}},{"type":"Feature","geometry":{"type":"Point","coordinates":[114.759738,30.326618]},"properties":{"name":"鄂州市","areaCode":420700,"deep":2,"parentCode":420000}},{"type":"Feature","geometry":{"type":"Point","coordinates":[114.623027,30.168077]},"properties":{"name":"梁子湖区","areaCode":420702,"deep":3,"parentCode":420700}},{"type":"Feature","geometry":{"type":"Point","coordinates":[114.723452,30.480322]},"properties":{"name":"华容区","areaCode":420703,"deep":3,"parentCode":420700}},{"type":"Feature","geometry":{"type":"Point","coordinates":[114.903512,30.327966]},"properties":{"name":"鄂城区","areaCode":420704,"deep":3,"parentCode":420700}},{"type":"Feature","geometry":{"type":"Point","coordinates":[112.614753,31.06948]},"properties":{"name":"荆门市","areaCode":420800,"deep":2,"parentCode":420000}},{"type":"Feature","geometry":{"type":"Point","coordinates":[112.098998,31.171602]},"properties":{"name":"东宝区","areaCode":420802,"deep":3,"parentCode":420800}},{"type":"Feature","geometry":{"type":"Point","coordinates":[112.206071,30.887729]},"properties":{"name":"掇刀区","areaCode":420804,"deep":3,"parentCode":420800}},{"type":"Feature","geometry":{"type":"Point","coordinates":[112.391761,30.660279]},"properties":{"name":"沙洋县","areaCode":420822,"deep":3,"parentCode":420800}},{"type":"Feature","geometry":{"type":"Point","coordinates":[112.578699,31.240858]},"properties":{"name":"钟祥市","areaCode":420881,"deep":3,"parentCode":420800}},{"type":"Feature","geometry":{"type":"Point","coordinates":[113.106857,31.080808]},"properties":{"name":"京山市","areaCode":420882,"deep":3,"parentCode":420800}},{"type":"Feature","geometry":{"type":"Point","coordinates":[113.885608,31.118116]},"properties":{"name":"孝感市","areaCode":420900,"deep":2,"parentCode":420000}},{"type":"Feature","geometry":{"type":"Point","coordinates":[114.009577,30.938947]},"properties":{"name":"孝南区","areaCode":420902,"deep":3,"parentCode":420900}},{"type":"Feature","geometry":{"type":"Point","coordinates":[114.027918,31.233341]},"properties":{"name":"孝昌县","areaCode":420921,"deep":3,"parentCode":420900}},{"type":"Feature","geometry":{"type":"Point","coordinates":[114.30405,31.571517]},"properties":{"name":"大悟县","areaCode":420922,"deep":3,"parentCode":420900}},{"type":"Feature","geometry":{"type":"Point","coordinates":[113.771457,30.999453]},"properties":{"name":"云梦县","areaCode":420923,"deep":3,"parentCode":420900}},{"type":"Feature","geometry":{"type":"Point","coordinates":[113.549436,30.919844]},"properties":{"name":"应城市","areaCode":420981,"deep":3,"parentCode":420900}},{"type":"Feature","geometry":{"type":"Point","coordinates":[113.62789,31.29964]},"properties":{"name":"安陆市","areaCode":420982,"deep":3,"parentCode":420900}},{"type":"Feature","geometry":{"type":"Point","coordinates":[113.674413,30.615889]},"properties":{"name":"汉川市","areaCode":420984,"deep":3,"parentCode":420900}},{"type":"Feature","geometry":{"type":"Point","coordinates":[112.574526,29.995051]},"properties":{"name":"荆州市","areaCode":421000,"deep":2,"parentCode":420000}},{"type":"Feature","geometry":{"type":"Point","coordinates":[112.390172,30.31969]},"properties":{"name":"沙市区","areaCode":421002,"deep":3,"parentCode":421000}},{"type":"Feature","geometry":{"type":"Point","coordinates":[112.103432,30.41084]},"properties":{"name":"荆州区","areaCode":421003,"deep":3,"parentCode":421000}},{"type":"Feature","geometry":{"type":"Point","coordinates":[112.14859,29.951436]},"properties":{"name":"公安县","areaCode":421022,"deep":3,"parentCode":421000}},{"type":"Feature","geometry":{"type":"Point","coordinates":[112.467882,30.094507]},"properties":{"name":"江陵县","areaCode":421024,"deep":3,"parentCode":421000}},{"type":"Feature","geometry":{"type":"Point","coordinates":[112.50764,29.732702]},"properties":{"name":"石首市","areaCode":421081,"deep":3,"parentCode":421000}},{"type":"Feature","geometry":{"type":"Point","coordinates":[113.538129,29.994385]},"properties":{"name":"洪湖市","areaCode":421083,"deep":3,"parentCode":421000}},{"type":"Feature","geometry":{"type":"Point","coordinates":[111.690179,30.099538]},"properties":{"name":"松滋市","areaCode":421087,"deep":3,"parentCode":421000}},{"type":"Feature","geometry":{"type":"Point","coordinates":[115.343867,30.717343]},"properties":{"name":"黄冈市","areaCode":421100,"deep":2,"parentCode":420000}},{"type":"Feature","geometry":{"type":"Point","coordinates":[114.942099,30.50989]},"properties":{"name":"黄州区","areaCode":421102,"deep":3,"parentCode":421100}},{"type":"Feature","geometry":{"type":"Point","coordinates":[115.006442,30.715765]},"properties":{"name":"团风县","areaCode":421121,"deep":3,"parentCode":421100}},{"type":"Feature","geometry":{"type":"Point","coordinates":[114.621938,31.283862]},"properties":{"name":"红安县","areaCode":421122,"deep":3,"parentCode":421100}},{"type":"Feature","geometry":{"type":"Point","coordinates":[115.472683,30.926263]},"properties":{"name":"罗田县","areaCode":421123,"deep":3,"parentCode":421100}},{"type":"Feature","geometry":{"type":"Point","coordinates":[115.766423,30.866836]},"properties":{"name":"英山县","areaCode":421124,"deep":3,"parentCode":421100}},{"type":"Feature","geometry":{"type":"Point","coordinates":[115.267657,30.502627]},"properties":{"name":"浠水县","areaCode":421125,"deep":3,"parentCode":421100}},{"type":"Feature","geometry":{"type":"Point","coordinates":[115.593747,30.322592]},"properties":{"name":"蕲春县","areaCode":421126,"deep":3,"parentCode":421100}},{"type":"Feature","geometry":{"type":"Point","coordinates":[115.934564,29.992615]},"properties":{"name":"黄梅县","areaCode":421127,"deep":3,"parentCode":421100}},{"type":"Feature","geometry":{"type":"Point","coordinates":[115.083613,31.212609]},"properties":{"name":"麻城市","areaCode":421181,"deep":3,"parentCode":421100}},{"type":"Feature","geometry":{"type":"Point","coordinates":[115.61902,30.00892]},"properties":{"name":"武穴市","areaCode":421182,"deep":3,"parentCode":421100}},{"type":"Feature","geometry":{"type":"Point","coordinates":[114.180828,29.622169]},"properties":{"name":"咸宁市","areaCode":421200,"deep":2,"parentCode":420000}},{"type":"Feature","geometry":{"type":"Point","coordinates":[114.385408,29.848621]},"properties":{"name":"咸安区","areaCode":421202,"deep":3,"parentCode":421200}},{"type":"Feature","geometry":{"type":"Point","coordinates":[113.960471,30.007504]},"properties":{"name":"嘉鱼县","areaCode":421221,"deep":3,"parentCode":421200}},{"type":"Feature","geometry":{"type":"Point","coordinates":[113.846299,29.22362]},"properties":{"name":"通城县","areaCode":421222,"deep":3,"parentCode":421200}},{"type":"Feature","geometry":{"type":"Point","coordinates":[114.06173,29.456296]},"properties":{"name":"崇阳县","areaCode":421223,"deep":3,"parentCode":421200}},{"type":"Feature","geometry":{"type":"Point","coordinates":[114.609317,29.552551]},"properties":{"name":"通山县","areaCode":421224,"deep":3,"parentCode":421200}},{"type":"Feature","geometry":{"type":"Point","coordinates":[113.883084,29.736829]},"properties":{"name":"赤壁市","areaCode":421281,"deep":3,"parentCode":421200}},{"type":"Feature","geometry":{"type":"Point","coordinates":[113.429995,31.828026]},"properties":{"name":"随州市","areaCode":421300,"deep":2,"parentCode":420000}},{"type":"Feature","geometry":{"type":"Point","coordinates":[113.430096,31.637986]},"properties":{"name":"曾都区","areaCode":421303,"deep":3,"parentCode":421300}},{"type":"Feature","geometry":{"type":"Point","coordinates":[113.250935,31.948755]},"properties":{"name":"随县","areaCode":421321,"deep":3,"parentCode":421300}},{"type":"Feature","geometry":{"type":"Point","coordinates":[113.805967,31.677175]},"properties":{"name":"广水市","areaCode":421381,"deep":3,"parentCode":421300}},{"type":"Feature","geometry":{"type":"Point","coordinates":[109.555117,30.191808]},"properties":{"name":"恩施土家族苗族自治州","areaCode":422800,"deep":2,"parentCode":420000}},{"type":"Feature","geometry":{"type":"Point","coordinates":[109.510768,30.303234]},"properties":{"name":"恩施市","areaCode":422801,"deep":3,"parentCode":422800}},{"type":"Feature","geometry":{"type":"Point","coordinates":[108.820664,30.233583]},"properties":{"name":"利川市","areaCode":422802,"deep":3,"parentCode":422800}},{"type":"Feature","geometry":{"type":"Point","coordinates":[109.933972,30.573499]},"properties":{"name":"建始县","areaCode":422822,"deep":3,"parentCode":422800}},{"type":"Feature","geometry":{"type":"Point","coordinates":[110.294043,30.821563]},"properties":{"name":"巴东县","areaCode":422823,"deep":3,"parentCode":422800}},{"type":"Feature","geometry":{"type":"Point","coordinates":[109.558198,29.880623]},"properties":{"name":"宣恩县","areaCode":422825,"deep":3,"parentCode":422800}},{"type":"Feature","geometry":{"type":"Point","coordinates":[108.997537,29.73151]},"properties":{"name":"咸丰县","areaCode":422826,"deep":3,"parentCode":422800}},{"type":"Feature","geometry":{"type":"Point","coordinates":[109.238738,29.419803]},"properties":{"name":"来凤县","areaCode":422827,"deep":3,"parentCode":422800}},{"type":"Feature","geometry":{"type":"Point","coordinates":[110.193426,29.91323]},"properties":{"name":"鹤峰县","areaCode":422828,"deep":3,"parentCode":422800}},{"type":"Feature","geometry":{"type":"Point","coordinates":[113.381345,30.287564]},"properties":{"name":"仙桃市","areaCode":429004,"deep":2,"parentCode":420000}},{"type":"Feature","geometry":{"type":"Point","coordinates":[112.762642,30.336071]},"properties":{"name":"潜江市","areaCode":429005,"deep":2,"parentCode":420000}},{"type":"Feature","geometry":{"type":"Point","coordinates":[113.114735,30.642494]},"properties":{"name":"天门市","areaCode":429006,"deep":2,"parentCode":420000}},{"type":"Feature","geometry":{"type":"Point","coordinates":[110.480761,31.589684]},"properties":{"name":"神农架林区","areaCode":429021,"deep":2,"parentCode":420000}}]}
